{
    "links": {
        "self": "http://www.neowsapp.com/rest/v1/neo/54055065?api_key=iIulBulltgU6a56xZRHN4H3l9WmuAYTsLGpBGhQ2"
    },
    "id": "54055065",
    "neo_reference_id": "54055065",
    "name": "(2020 TV1)",
    "designation": "2020 TV1",
    "nasa_jpl_url": "http://ssd.jpl.nasa.gov/sbdb.cgi?sstr=54055065",
    "absolute_magnitude_h": 21.444,
    "estimated_diameter": {
        "kilometers": {
            "estimated_diameter_min": 0.1366957388,
            "estimated_diameter_max": 0.3056609642
        },
        "meters": {
            "estimated_diameter_min": 136.695738812,
            "estimated_diameter_max": 305.6609642182
        },
        "miles": {
            "estimated_diameter_min": 0.0849387679,
            "estimated_diameter_max": 0.189928859
        },
        "feet": {
            "estimated_diameter_min": 448.4768477239,
            "estimated_diameter_max": 1002.8247178455
        }
    },
    "is_potentially_hazardous_asteroid": false,
    "close_approach_data": [
        {
            "close_approach_date": "2020-09-07",
            "close_approach_date_full": "2020-Sep-07 14:15",
            "epoch_date_close_approach": 1599488100000,
            "relative_velocity": {
                "kilometers_per_second": "11.8367963723",
                "kilometers_per_hour": "42612.4669402274",
                "miles_per_hour": "26477.7298051652"
            },
            "miss_distance": {
                "astronomical": "0.2783934745",
                "lunar": "108.2950615805",
                "kilometers": "41647070.807099315",
                "miles": "25878289.807287947"
            },
            "orbiting_body": "Earth"
        },
        {
            "close_approach_date": "2024-08-17",
            "close_approach_date_full": "2024-Aug-17 01:02",
            "epoch_date_close_approach": 1723856520000,
            "relative_velocity": {
                "kilometers_per_second": "12.6951218276",
                "kilometers_per_hour": "45702.4385791973",
                "miles_per_hour": "28397.7180160573"
            },
            "miss_distance": {
                "astronomical": "0.3677318878",
                "lunar": "143.0477043542",
                "kilometers": "55011907.145958986",
                "miles": "34182814.0223505668"
            },
            "orbiting_body": "Earth"
        },
        {
            "close_approach_date": "2168-09-06",
            "close_approach_date_full": "2168-Sep-06 02:10",
            "epoch_date_close_approach": 6269796600000,
            "relative_velocity": {
                "kilometers_per_second": "11.1798237647",
                "kilometers_per_hour": "40247.365552907",
                "miles_per_hour": "25008.1477792494"
            },
            "miss_distance": {
                "astronomical": "0.2810395909",
                "lunar": "109.3244008601",
                "kilometers": "42042924.184311383",
                "miles": "26124261.6900197654"
            },
            "orbiting_body": "Earth"
        }
    ],
    "orbital_data": {
        "orbit_id": "3",
        "orbit_determination_date": "2020-10-17 08:34:51",
        "first_observation_date": "2020-09-30",
        "last_observation_date": "2020-10-16",
        "data_arc_in_days": 16,
        "observations_used": 20,
        "orbit_uncertainty": "7",
        "minimum_orbit_intersection": ".1599",
        "jupiter_tisserand_invariant": "3.224",
        "epoch_osculation": "2459000.5",
        "eccentricity": ".529335186912396",
        "semi_major_axis": "2.482551489767412",
        "inclination": "15.83417322302795",
        "ascending_node_longitude": "339.1242760082426",
        "orbital_period": "1428.71572277943",
        "perihelion_distance": "1.168449632911732",
        "perihelion_argument": "356.585629395756",
        "aphelion_distance": "3.796653346623092",
        "perihelion_time": "2459102.888415683938",
        "mean_anomaly": "334.2007251278019",
        "mean_motion": ".2519745490724036",
        "equinox": "J2000",
        "orbit_class": {
            "orbit_class_type": "AMO",
            "orbit_class_description": "Near-Earth asteroid orbits similar to that of 1221 Amor",
            "orbit_class_range": "1.017 AU < q (perihelion) < 1.3 AU"
        }
    },
    "is_sentry_object": false
}